AMC-15                  
1 28446U 04041A   17345.61433876 -.00000095  00000-0  00000-0 0  9996
2 28446   0.0352  56.1688 0003166 227.3198 273.1418  1.00272288 48219
